SIRION PATHFINDER-2     
1 43759U 18099B   26169.10670929  .00003576  00000+0  19736-3 0  9992
2 43759  97.4247 218.1424 0007173 301.3763  58.6767 15.14554484412766
CORVUS BC4              
1 43767U 18099K   26169.11452402  .00003259  00000+0  19072-3 0  9997
2 43767  97.4063 212.0677 0008158  10.4033 349.7365 15.12502465412540
M2 PATHFINDER           
1 45727U 20037E   26169.11088192  .00001249  00000+0  93240-4 0  9998
2 45727  97.8146   0.3531 0012547 143.4476 216.7608 15.04678445325635
NETSAT-4                
1 46504U 20068U   26168.96738356  .00014505  00000+0  32135-3 0  9996
2 46504  97.8602 177.2709 0003746 334.9225  25.1839 15.43886308315894
NETSAT-3                
1 46505U 20068V   26168.97425815  .00015908  00000+0  36637-3 0  9990
2 46505  97.8650 175.4935 0004105 358.6628   1.4606 15.42703106315802
NETSAT-1                
1 46506U 20068W   26168.98306510  .00010174  00000+0  30536-3 0  9994
2 46506  97.8744 169.8249 0004944  30.0332 330.1192 15.34659320315425
NETSAT-2                
1 46507U 20068X   26169.00636128  .00019360  00000+0  39798-3 0  9995
2 46507  97.8610 177.2101 0003355  24.4106 335.7300 15.46029156315860
GREENCUBE (IO-117)      
1 53109U 22080E   26169.27375306 -.00000003  00000+0  00000+0 0  9999
2 53109  70.1443 297.8672 0008908 289.4662  70.5035  6.42583242 92133
SITRO-AIS 5 (KATYS)     
1 57176U 23091L   26169.24762549  .00009785  00000+0  34420-3 0  9998
2 57176  97.5056 233.1570 0012755 100.1940 260.0739 15.29477635164508
SITRO-AIS 6 (CHIRKIN)   
1 57192U 23091AC  26169.22901960  .00007710  00000+0  30245-3 0  9993
2 57192  97.5063 232.2519 0013098 103.2658 257.0041 15.25951394164448
SITRO-AIS 8 (ANOKHIN)   
1 57193U 23091AD  26169.26279740  .00011715  00000+0  37887-3 0  9991
2 57193  97.5052 234.7652 0011768  96.7536 263.5045 15.32161168164610
SITRO-AIS 7 (FARTUSHNIY)
1 57194U 23091AE  26169.23238129  .00007644  00000+0  30268-3 0  9997
2 57194  97.5061 232.0799 0012953 104.2251 256.0427 15.25639509164432
SITRO-AIS 10 (BURDAEV)  
1 57199U 23091AK  26169.28981687  .00015915  00000+0  41839-3 0  9997
2 57199  97.5078 239.8582 0007440  77.0360 283.1715 15.38647728164935
SITRO-AIS 9 (SHCHUKIN)  
1 57201U 23091AM  26169.18645890  .00015095  00000+0  40341-3 0  9999
2 57201  97.5076 239.4818 0007709  77.3462 282.8644 15.38150906164900
SITRO-AIS 12 (SMIRENNIY)
1 57204U 23091AQ  26169.24193273  .00014792  00000+0  39167-3 0  9999
2 57204  97.5090 240.0062 0007226  72.3875 287.8159 15.38445690164931
SITRO-AIS 11 (SHEFFER)  
1 57208U 23091AU  26169.12500694  .00017481  00000+0  45600-3 0  9996
2 57208  97.5087 240.1340 0007134  72.5873 287.6151 15.38869187164930
SITRO-AIS 25            
1 59066U 24039R   26169.31415238  .00002261  00000+0  17831-3 0  9998
2 59066  95.3904 235.8670 0143317 324.7723  34.4092 14.93517819124890
SITRO-AIS 26            
1 59067U 24039S   26169.24867084  .00002165  00000+0  17158-3 0  9996
2 59067  95.3910 235.7193 0143724 325.6167  33.5819 14.93313908124879
SITRO-AIS 27            
1 59068U 24039T   26169.28560514  .00001765  00000+0  13922-3 0  9999
2 59068  95.3912 236.0171 0142676 324.0991  35.0709 14.93735265124908
SITRO-AIS 28            
1 59071U 24039U   26169.26302730  .00002480  00000+0  19437-3 0  9997
2 59071  95.3911 236.0488 0142516 324.0059  35.1631 14.93768479124908
GRBBETA                 
1 60237U 24128C   26168.48551437  .00002424  00000+0  17435-3 0  9999
2 60237  61.9882 215.2195 0040617 134.7304 225.7108 15.06640908106314
OOV-CUBE (TUBSAT-30)    
1 60240U 24128F   26169.25317337  .00001463  00000+0  12238-3 0  9996
2 60240  61.9932 221.8560 0044511 134.0115 226.4659 15.02777232106274
ROBUSTA-3A (MEDITERRAN*)
1 60243U 24128J   26169.12705629  .00004198  00000+0  25366-3 0  9994
2 60243  61.9845 204.9203 0041294 128.1142 232.3688 15.11684211106569
LASARSAT                
1 62391U 24247Q   26167.97623210  .00026221  00000+0  52389-3 0  9994
2 62391  44.9742 263.4006 0008180 330.0323  30.0098 15.46364825 83280
CROCUBE                 
1 62394U 24247T   26168.68403664  .00028750  00000+0  53655-3 0  9991
2 62394  44.9716 256.7472 0007967 338.3414  21.7139 15.48292245 83427
FORESAIL-1 PRIME        
1 66778U 25276DS  26168.72132939  .00003751  00000+0  18399-3 0  9993
2 66778  97.4199 241.9826 0003961 102.4588 257.7090 15.18706701 30485
KNACKSAT-2              
1 67683U 98067XZ  26168.60673955  .00040994  00000+0  49993-3 0  9996
2 67683  51.6314 292.3670 0009088 217.1010 142.9356 15.60014370 20344
