OBJECT_NAME,OBJECT_ID,EPOCH,MEAN_MOTION,ECCENTRICITY,INCLINATION,RA_OF_ASC_NODE,ARG_OF_PERICENTER,MEAN_ANOMALY,EPHEMERIS_TYPE,CLASSIFICATION_TYPE,NORAD_CAT_ID,ELEMENT_SET_NO,REV_AT_EPOCH,BSTAR,MEAN_MOTION_DOT,MEAN_MOTION_DDOT
SIRION PATHFINDER-2,2018-099B,2026-06-18T02:33:39.682656,15.14554484,.00071732,97.4247,218.1424,301.3763,58.6767,0,U,43759,999,41276,.1973572E-3,.3576E-4,0
CORVUS BC4,2018-099K,2026-06-18T02:44:54.875328,15.12502465,.00081585,97.4063,212.0677,10.4033,349.7365,0,U,43767,999,41254,.19072389E-3,.3259E-4,0
M2 PATHFINDER,2020-037E,2026-06-18T02:39:40.197888,15.04678445,.00125476,97.8146,0.3531,143.4476,216.7608,0,U,45727,999,32563,.93240256E-4,.1249E-4,0
NETSAT-4,2020-068U,2026-06-17T23:13:01.939584,15.43886308,.00037463,97.8602,177.2709,334.9225,25.1839,0,U,46504,999,31589,.32135229E-3,.14505E-3,0
NETSAT-3,2020-068V,2026-06-17T23:22:55.904160,15.42703106,.00041054,97.8650,175.4935,358.6628,1.4606,0,U,46505,999,31580,.36637403E-3,.15908E-3,0
NETSAT-1,2020-068W,2026-06-17T23:35:36.824640,15.34659320,.00049447,97.8744,169.8249,30.0332,330.1192,0,U,46506,999,31542,.30536021E-3,.10174E-3,0
NETSAT-2,2020-068X,2026-06-18T00:09:09.614592,15.46029156,.00033553,97.8610,177.2101,24.4106,335.7300,0,U,46507,999,31586,.39798139E-3,.1936E-3,0
GREENCUBE (IO-117),2022-080E,2026-06-18T06:34:12.264384,6.42583242,.00089089,70.1443,297.8672,289.4662,70.5035,0,U,53109,999,9213,0,-.3E-7,0
SITRO-AIS 5 (KATYS),2023-091L,2026-06-18T05:56:34.842336,15.29477635,.00127559,97.5056,233.1570,100.1940,260.0739,0,U,57176,999,16450,.34420209E-3,.9785E-4,0
SITRO-AIS 6 (CHIRKIN),2023-091AC,2026-06-18T05:29:47.293440,15.25951394,.00130985,97.5063,232.2519,103.2658,257.0041,0,U,57192,999,16444,.30244686E-3,.771E-4,0
SITRO-AIS 8 (ANOKHIN),2023-091AD,2026-06-18T06:18:25.695360,15.32161168,.00117683,97.5052,234.7652,96.7536,263.5045,0,U,57193,999,16461,.3788723E-3,.11715E-3,0
SITRO-AIS 7 (FARTUSHNIY),2023-091AE,2026-06-18T05:34:37.743456,15.25639509,.00129539,97.5061,232.0799,104.2251,256.0427,0,U,57194,999,16443,.30268155E-3,.7644E-4,0
SITRO-AIS 10 (BURDAEV),2023-091AK,2026-06-18T06:57:20.177568,15.38647728,.00074403,97.5078,239.8582,77.0360,283.1715,0,U,57199,999,16493,.41839426E-3,.15915E-3,0
SITRO-AIS 9 (SHCHUKIN),2023-091AM,2026-06-18T04:28:30.048960,15.38150906,.00077092,97.5076,239.4818,77.3462,282.8644,0,U,57201,999,16490,.40340821E-3,.15095E-3,0
SITRO-AIS 12 (SMIRENNIY),2023-091AQ,2026-06-18T05:48:22.987872,15.38445690,.00072268,97.5090,240.0062,72.3875,287.8159,0,U,57204,999,16493,.39166858E-3,.14792E-3,0
SITRO-AIS 11 (SHEFFER),2023-091AU,2026-06-18T03:00:00.599616,15.38869187,.00071349,97.5087,240.1340,72.5873,287.6151,0,U,57208,999,16493,.4559969E-3,.17481E-3,0
SITRO-AIS 25,2024-039R,2026-06-18T07:32:22.765632,14.93517819,.01433179,95.3904,235.8670,324.7723,34.4092,0,U,59066,999,12489,.17830626E-3,.2261E-4,0
SITRO-AIS 26,2024-039S,2026-06-18T05:58:05.160576,14.93313908,.01437242,95.3910,235.7193,325.6167,33.5819,0,U,59067,999,12487,.17158362E-3,.2165E-4,0
SITRO-AIS 27,2024-039T,2026-06-18T06:51:16.284096,14.93735265,.01426769,95.3912,236.0171,324.0991,35.0709,0,U,59068,999,12490,.13921843E-3,.1765E-4,0
SITRO-AIS 28,2024-039U,2026-06-18T06:18:45.558720,14.93768479,.01425164,95.3911,236.0488,324.0059,35.1631,0,U,59071,999,12490,.19436635E-3,.248E-4,0
GRBBETA,2024-128C,2026-06-17T11:39:08.441568,15.06640908,.00406176,61.9882,215.2195,134.7304,225.7108,0,U,60237,999,10631,.17434717E-3,.2424E-4,0
OOV-CUBE (TUBSAT-30),2024-128F,2026-06-18T06:04:34.179168,15.02777232,.00445114,61.9932,221.8560,134.0115,226.4659,0,U,60240,999,10627,.12238364E-3,.1463E-4,0
ROBUSTA-3A (MEDITERRANEE),2024-128J,2026-06-18T03:02:57.663456,15.11684211,.00412944,61.9845,204.9203,128.1142,232.3688,0,U,60243,999,10656,.25366486E-3,.4198E-4,0
LASARSAT,2024-247Q,2026-06-16T23:25:46.453440,15.46364825,.000818,44.9742,263.4006,330.0323,30.0098,0,U,62391,999,8328,.52389176E-3,.26221E-3,0
CROCUBE,2024-247T,2026-06-17T16:25:00.765696,15.48292245,.00079679,44.9716,256.7472,338.3414,21.7139,0,U,62394,999,8342,.53654775E-3,.2875E-3,0
FORESAIL-1 PRIME,2025-276DS,2026-06-17T17:18:42.859296,15.18706701,.00039616,97.4199,241.9826,102.4588,257.7090,0,U,66778,999,3048,.18398799E-3,.3751E-4,0
KNACKSAT-2,1998-067XZ,2026-06-17T14:33:42.297120,15.60014370,.0009088,51.6314,292.3670,217.1010,142.9356,0,U,67683,999,2034,.49993E-3,.40994E-3,0
